GPS BIIF-7  (PRN 09)    
1 40105U 14045A   26065.34175882 -.00000006  00000+0  00000+0 0  9996
2 40105  55.2826  92.5609 0031506 120.4642 239.9070  2.00551673 84017
GPS BIIF-8  (PRN 03)    
1 40294U 14068A   26065.71831198 -.00000077  00000+0  00000+0 0  9998
2 40294  56.9211  34.9026 0062902  68.0531 292.5994  2.00570053 83150
GPS BIIF-9  (PRN 26)    
1 40534U 15013A   26065.35117279  .00000016  00000+0  00000+0 0  9995
2 40534  53.1859 208.4290 0108755  39.8054 320.9401  2.00557521 79764
GPS BIIF-10 (PRN 08)    
1 40730U 15033A   26066.01024086 -.00000009  00000+0  00000+0 0  9995
2 40730  54.0627 271.2974 0114563  29.0325 331.6191  2.00561541 77948
GPS BIIF-11 (PRN 10)    
1 41019U 15062A   26065.57045997 -.00000077  00000+0  00000+0 0  9997
2 41019  56.8944  34.7646 0111446 231.5107 127.4729  2.00567148 75770
GPS BIIF-12 (PRN 32)    
1 41328U 16007A   26065.15731679 -.00000004  00000+0  00000+0 0  9993
2 41328  55.4568  93.5431 0095487 246.0433 113.0135  2.00556703 73779
GPS BIII-1  (PRN 04)    
1 43873U 18109A   26065.54477595 -.00000004  00000+0  00000+0 0  9992
2 43873  55.6164  96.2348 0037951 198.3878 333.9441  2.00556975 53010
GPS BIII-2  (PRN 18)    
1 44506U 19056A   26065.18297285 -.00000100  00000+0  00000+0 0  9991
2 44506  55.6839 335.2387 0058046 198.0933 333.3685  2.00568454 48001
GPS BIII-3  (PRN 23)    
1 45854U 20041A   26065.51925653 -.00000081  00000+0  00000+0 0  9996
2 45854  56.6073  32.9268 0061430 205.2409 151.1260  2.00560728 41978
GPS BIII-4  (PRN 14)    
1 46826U 20078A   26065.79616591  .00000022  00000+0  00000+0 0  9998
2 46826  54.0012 214.9287 0068324 204.3590 325.2473  2.00565568 39453
GPS BIII-5  (PRN 11)    
1 48859U 21054A   26064.07032190 -.00000101  00000+0  00000+0 0  9997
2 48859  55.2207 336.6471 0023861 232.0319 315.6765  2.00575594 34666
GPS BIII-6  (PRN 28)    
1 55268U 23009A   26064.24350115  .00000010  00000+0  00000+0 0  9998
2 55268  55.1095 152.6049 0004568 336.6055  15.2776  2.00549197 23157
GPS BIII-7  (PRN 01)    
1 62339U 24242A   26065.64478888 -.00000104  00000+0  00000+0 0  9993
2 62339  54.8910 338.3407 0015837 356.9340   8.8099  2.00569825  9206
GPS BIII-8  (PRN 21)    
1 64202U 25116A   26062.39238152 -.00000077  00000+0  00000+0 0  9991
2 64202  55.1633  35.3874 0008474 325.1064  37.8908  2.00553198  5758
GPS BIII-9  (PRN 20)    
1 67588U 26017A   26062.99831483  .00000012  00000+0  00000+0 0  9992
2 67588  55.0184  92.9751 0001516  18.2827 341.7919  2.00560918429508
